EUTELSAT 7A             
1 28187U 04008A   25337.40285544  .00000119  00000+0  00000+0 0  9999
2 28187   5.3330  74.3523 0001322 200.7564 163.2162  1.00268069 79399
EUTELSAT 174A           
1 28924U 05052A   25337.67893647  .00000025  00000+0  00000+0 0  9992
2 28924   3.7234  78.9549 0006595 173.0972 239.1088  1.00270906 50373
EUTELSAT HOTBIRD 13B    
1 29270U 06032A   25337.72243235  .00000173  00000+0  00000+0 0  9998
2 29270   1.1556  84.4367 0003761 164.8284 116.7026  1.00271616 45345
EUTELSAT HOTBIRD 13C    
1 33459U 08065A   25337.42252889 -.00000254  00000+0  00000+0 0  9993
2 33459   2.4457  81.5181 0001266 189.3676 273.7520  1.00048913 45389
EUTELSAT 36B            
1 36101U 09065A   25337.44046899  .00000131  00000+0  00000+0 0  9998
2 36101   0.0398 337.6888 0006465 274.1546  29.7523  1.00269255 58748
EUTELSAT KA-SAT 9A      
1 37258U 10069A   25337.07551067  .00000081  00000+0  00000+0 0  9999
2 37258   0.0516 331.8403 0001123 221.7679 274.7556  1.00272059 42044
EUTELSAT 7 WEST A       
1 37816U 11051A   25337.71437229 -.00000043  00000+0  00000+0 0  9994
2 37816   0.0642   6.5210 0006029 220.0307  96.1202  1.00271443 51912
EUTELSAT 16A            
1 37836U 11057A   25337.71905233  .00000122  00000+0  00000+0 0  9994
2 37836   0.0590 348.1069 0006062 271.1220  88.4486  1.00273877  5360
